date:2024-08-30T03:18:27+00:00
validtle:1
satid:53791
launchyear:2022
epoch:22302.60955382
epochday:302
tleage:671
tleclassification:U
active:0
name:STARLINK-4736
meananomly:333.9655
meanmotion:15.9791
rightascension:0.0000
declination:0.0000
semimajoraxis:6658.363974107
altitudeatperigee:273
altitudeatapogee:288
inclination:53.199
eccentricity:0.0011325
argumentofperigree:26.1946
nickname:STARLINK-4736
idesg:22111U  
cosparid:2022-111U
altkm:274.38355400038
velkms:7.7478660045352
velkmh:27892
onumepoch:771
onumnow:43326.95
otype:98
otypedesc:Inactive TLE
status:98
timestamp:2022-10-29T14:37:45+00:00
nowjuliandate:2460552.6378235
nowepochdate:24243.09.1378125
TLE:
STARLINK-4736
1 53791U 22111U   22302.60955382  .00358439  63938-4  76938-3 0  9990
2 53791  53.1990  22.0601 0011325  26.1946 333.9655 15.97907586  7711